[{"OBJECT_NAME":"SKYBEE-A02","OBJECT_ID":"2025-135S","EPOCH":"2026-03-09T21:58:43.816224","MEAN_MOTION":15.19505176,"ECCENTRICITY":0.00031028,"INCLINATION":97.4603,"RA_OF_ASC_NODE":184.7908,"ARG_OF_PERICENTER":118.2708,"MEAN_ANOMALY":241.884,"EPHEMERIS_TYPE":0,"CLASSIFICATION_TYPE":"U","NORAD_CAT_ID":64544,"ELEMENT_SET_NO":999,"REV_AT_EPOCH":3975,"BSTAR":0.00020650672,"MEAN_MOTION_DOT":4.316e-5,"MEAN_MOTION_DDOT":0},{"OBJECT_NAME":"MAUVE","OBJECT_ID":"2025-276CU","EPOCH":"2026-03-09T17:14:44.951712","MEAN_MOTION":15.19228326,"ECCENTRICITY":5.768e-5,"INCLINATION":97.4273,"RA_OF_ASC_NODE":144.0489,"ARG_OF_PERICENTER":359.247,"MEAN_ANOMALY":0.8764,"EPHEMERIS_TYPE":0,"CLASSIFICATION_TYPE":"U","NORAD_CAT_ID":66756,"ELEMENT_SET_NO":999,"REV_AT_EPOCH":1532,"BSTAR":0.00039937228,"MEAN_MOTION_DOT":8.348e-5,"MEAN_MOTION_DDOT":0}]
